{
  "type": "FeatureCollection",
  "features": [
    {
      "type": "Feature",
      "properties": {
        "norad_id": 40362,
        "name": "YAOGAN-26",
        "group": "resource",
        "lat": 30.329939061225566,
        "lon": -18.628731487309107,
        "alt_km": 442.61388491756406,
        "timestamp": "2025-12-10T18:56:59.719110+00:00",
        "meta_object_name": "YAOGAN-26",
        "meta_object_id": "2014-088A",
        "meta_epoch": "2025-12-10T12:34:35.042016",
        "meta_mean_motion": 15.39165194,
        "meta_eccentricity": 0.0006559,
        "meta_inclination": 97.0651,
        "meta_ra_of_asc_node": 345.2763,
        "meta_arg_of_pericenter": 36.0878,
        "meta_mean_anomaly": 324.081,
        "meta_ephemeris_type": 0,
        "meta_classification_type": "U",
        "meta_norad_cat_id": 40362,
        "meta_element_set_no": 999,
        "meta_rev_at_epoch": 60860,
        "meta_bstar": 0.00039747,
        "meta_mean_motion_dot": 0.00015375,
        "meta_mean_motion_ddot": 0,
        "tle_line1": "1 40362U 14088A   25344.52401669  .00015375  00000+0  39747-3 0  9990",
        "tle_line2": "2 40362  97.0651 345.2763 0006559  36.0878 324.0810 15.39165194608604"
      },
      "geometry": {
        "type": "Point",
        "coordinates": [
          -18.628731487309107,
          30.329939061225566
        ]
      }
    },
    {
      "type": "Feature",
      "properties": {
        "norad_id": 40376,
        "name": "SMAP",
        "group": "resource",
        "lat": 81.73946234878245,
        "lon": -110.5518509450316,
        "alt_km": 674.097299032469,
        "timestamp": "2025-12-10T18:56:59.719120+00:00",
        "meta_object_name": "SMAP",
        "meta_object_id": "2015-003A",
        "meta_epoch": "2025-12-10T11:58:10.064640",
        "meta_mean_motion": 14.63340562,
        "meta_eccentricity": 0.0001202,
        "meta_inclination": 98.1291,
        "meta_ra_of_asc_node": 349.2548,
        "meta_arg_of_pericenter": 88.7166,
        "meta_mean_anomaly": 271.4174,
        "meta_ephemeris_type": 0,
        "meta_classification_type": "U",
        "meta_norad_cat_id": 40376,
        "meta_element_set_no": 999,
        "meta_rev_at_epoch": 58002,
        "meta_bstar": 0.0001877,
        "meta_mean_motion_dot": 9.22e-06,
        "meta_mean_motion_ddot": 0,
        "tle_line1": "1 40376U 15003A   25344.49872760  .00000922  00000+0  18770-3 0  9998",
        "tle_line2": "2 40376  98.1291 349.2548 0001202  88.7166 271.4174 14.63340562580023"
      },
      "geometry": {
        "type": "Point",
        "coordinates": [
          -110.5518509450316,
          81.73946234878245
        ]
      }
    },
    {
      "type": "Feature",
      "properties": {
        "norad_id": 40536,
        "name": "KOMPSAT-3A",
        "group": "resource",
        "lat": -60.565733418542024,
        "lon": -27.136503853602726,
        "alt_km": 445.12130835702555,
        "timestamp": "2025-12-10T18:56:59.719130+00:00",
        "meta_object_name": "KOMPSAT-3A",
        "meta_object_id": "2015-014A",
        "meta_epoch": "2025-12-10T11:26:17.459808",
        "meta_mean_motion": 15.4381226,
        "meta_eccentricity": 0.0004676,
        "meta_inclination": 97.6792,
        "meta_ra_of_asc_node": 318.698,
        "meta_arg_of_pericenter": 131.7964,
        "meta_mean_anomaly": 228.3683,
        "meta_ephemeris_type": 0,
        "meta_classification_type": "U",
        "meta_norad_cat_id": 40536,
        "meta_element_set_no": 999,
        "meta_rev_at_epoch": 59260,
        "meta_bstar": 0.00060154,
        "meta_mean_motion_dot": 0.0002722,
        "meta_mean_motion_ddot": 0,
        "tle_line1": "1 40536U 15014A   25344.47659097  .00027220  00000+0  60154-3 0  9995",
        "tle_line2": "2 40536  97.6792 318.6980 0004676 131.7964 228.3683 15.43812260592605"
      },
      "geometry": {
        "type": "Point",
        "coordinates": [
          -27.136503853602726,
          -60.565733418542024
        ]
      }
    },
    {
      "type": "Feature",
      "properties": {
        "norad_id": 40697,
        "name": "SENTINEL-2A",
        "group": "resource",
        "lat": -7.839181507566077,
        "lon": -123.83979893769128,
        "alt_km": 792.9920587893494,
        "timestamp": "2025-12-10T18:56:59.719140+00:00",
        "meta_object_name": "SENTINEL-2A",
        "meta_object_id": "2015-028A",
        "meta_epoch": "2025-12-10T11:21:42.406272",
        "meta_mean_motion": 14.3082665,
        "meta_eccentricity": 0.0001071,
        "meta_inclination": 98.569,
        "meta_ra_of_asc_node": 57.0381,
        "meta_arg_of_pericenter": 89.2148,
        "meta_mean_anomaly": 270.9158,
        "meta_ephemeris_type": 0,
        "meta_classification_type": "U",
        "meta_norad_cat_id": 40697,
        "meta_element_set_no": 999,
        "meta_rev_at_epoch": 54674,
        "meta_bstar": 0.000196,
        "meta_mean_motion_dot": 4.7e-06,
        "meta_mean_motion_ddot": 0,
        "tle_line1": "1 40697U 15028A   25344.47340748  .00000470  00000+0  19600-3 0  9996",
        "tle_line2": "2 40697  98.5690  57.0381 0001071  89.2148 270.9158 14.30826650546743"
      },
      "geometry": {
        "type": "Point",
        "coordinates": [
          -123.83979893769128,
          -7.839181507566077
        ]
      }
    },
    {
      "type": "Feature",
      "properties": {
        "norad_id": 40701,
        "name": "GAOFEN-8",
        "group": "resource",
        "lat": -19.811775918411463,
        "lon": -19.955721079383498,
        "alt_km": 451.47500480739563,
        "timestamp": "2025-12-10T18:56:59.719150+00:00",
        "meta_object_name": "GAOFEN-8",
        "meta_object_id": "2015-030A",
        "meta_epoch": "2025-12-10T13:24:05.437728",
        "meta_mean_motion": 15.38444,
        "meta_eccentricity": 0.0011506,
        "meta_inclination": 97.6916,
        "meta_ra_of_asc_node": 162.5927,
        "meta_arg_of_pericenter": 145.1805,
        "meta_mean_anomaly": 215.0194,
        "meta_ephemeris_type": 0,
        "meta_classification_type": "U",
        "meta_norad_cat_id": 40701,
        "meta_element_set_no": 999,
        "meta_rev_at_epoch": 58237,
        "meta_bstar": 0.00098679,
        "meta_mean_motion_dot": 0.00037554,
        "meta_mean_motion_ddot": 0,
        "tle_line1": "1 40701U 15030A   25344.55839627  .00037554  00000+0  98679-3 0  9999",
        "tle_line2": "2 40701  97.6916 162.5927 0011506 145.1805 215.0194 15.38444000582377"
      },
      "geometry": {
        "type": "Point",
        "coordinates": [
          -19.955721079383498,
          -19.811775918411463
        ]
      }
    },
    {
      "type": "Feature",
      "properties": {
        "norad_id": 40718,
        "name": "CARBONITE 1 (CBNT-1)",
        "group": "resource",
        "lat": 17.73589598231911,
        "lon": -11.619664148988043,
        "alt_km": 612.2067582769641,
        "timestamp": "2025-12-10T18:56:59.719160+00:00",
        "meta_object_name": "CARBONITE 1 (CBNT-1)",
        "meta_object_id": "2015-032D",
        "meta_epoch": "2025-12-10T11:44:33.816192",
        "meta_mean_motion": 14.82727721,
        "meta_eccentricity": 0.0014246,
        "meta_inclination": 97.6405,
        "meta_ra_of_asc_node": 165.6327,
        "meta_arg_of_pericenter": 188.8398,
        "meta_mean_anomaly": 171.2568,
        "meta_ephemeris_type": 0,
        "meta_classification_type": "U",
        "meta_norad_cat_id": 40718,
        "meta_element_set_no": 999,
        "meta_rev_at_epoch": 56137,
        "meta_bstar": 0.00044792,
        "meta_mean_motion_dot": 3.573e-05,
        "meta_mean_motion_ddot": 0,
        "tle_line1": "1 40718U 15032D   25344.48928028  .00003573  00000+0  44792-3 0  9996",
        "tle_line2": "2 40718  97.6405 165.6327 0014246 188.8398 171.2568 14.82727721561378"
      },
      "geometry": {
        "type": "Point",
        "coordinates": [
          -11.619664148988043,
          17.73589598231911
        ]
      }
    },
    {
      "type": "Feature",
      "properties": {
        "norad_id": 40878,
        "name": "YAOGAN-27",
        "group": "resource",
        "lat": -50.3510297496358,
        "lon": -13.082076368287252,
        "alt_km": 1201.023581769151,
        "timestamp": "2025-12-10T18:56:59.719171+00:00",
        "meta_object_name": "YAOGAN-27",
        "meta_object_id": "2015-040A",
        "meta_epoch": "2025-12-10T11:54:45.172224",
        "meta_mean_motion": 13.16060428,
        "meta_eccentricity": 0.0007644,
        "meta_inclination": 100.101,
        "meta_ra_of_asc_node": 334.2172,
        "meta_arg_of_pericenter": 292.5363,
        "meta_mean_anomaly": 67.4941,
        "meta_ephemeris_type": 0,
        "meta_classification_type": "U",
        "meta_norad_cat_id": 40878,
        "meta_element_set_no": 999,
        "meta_rev_at_epoch": 49284,
        "meta_bstar": 0.00082714,
        "meta_mean_motion_dot": 2.72e-06,
        "meta_mean_motion_ddot": 0,
        "tle_line1": "1 40878U 15040A   25344.49635616  .00000272  00000+0  82714-3 0  9990",
        "tle_line2": "2 40878 100.1010 334.2172 0007644 292.5363  67.4941 13.16060428492844"
      },
      "geometry": {
        "type": "Point",
        "coordinates": [
          -13.082076368287252,
          -50.3510297496358
        ]
      }
    }
  ]
}